{
  "type": "FeatureCollection",
  "name": "jingzhang_time_rights_site_grounded_anchor_network",
  "crs_note": "EPSG:4326 WGS84; research background only, not survey/redline geometry",
  "provenance": {
    "repo_crosschecks": [
      "submissions/lllvernan-blip/jingzhang-same-corridor/visual/assets/coordinate-verification-log.json",
      "submissions/kingyfleo/jingzhang-civic-foundry/visual/assets/site-anchor-ledger.json",
      "submissions/tokeny-ai/jingzhang-ai-spine/sources.json"
    ],
    "use_rule": "Coordinates are public-map/background anchor checks. Before formal site claims, independently re-query original public/OSM sources and preserve attribution."
  },
  "features": [
    {"type":"Feature","id":"ANCHOR-DAZHONGSI","properties":{"feature_type":"station_anchor","name_zh":"大钟寺站","status":"background_verified_point","time_rights_role":"southern mobility anchor","formal_claim":false},"geometry":{"type":"Point","coordinates":[116.3383,39.9650]}},
    {"type":"Feature","id":"ANCHOR-ZHICHUNLU","properties":{"feature_type":"station_anchor","name_zh":"知春路站","status":"background_verified_point","time_rights_role":"transfer/reference anchor","formal_claim":false},"geometry":{"type":"Point","coordinates":[116.3345,39.9747]}},
    {"type":"Feature","id":"ANCHOR-WUDAOKOU","properties":{"feature_type":"station_anchor","name_zh":"五道口站","status":"background_verified_point","time_rights_role":"AI Origin south mobility anchor","formal_claim":false},"geometry":{"type":"Point","coordinates":[116.3376,39.9929]}},
    {"type":"Feature","id":"ANCHOR-QH-EAST-WEST","properties":{"feature_type":"station_anchor","name_zh":"清华东路西口站","status":"background_verified_point","time_rights_role":"AI Origin north mobility anchor","formal_claim":false},"geometry":{"type":"Point","coordinates":[116.3329,39.9989]}},
    {"type":"Feature","id":"ANCHOR-XUEZHIYUAN","properties":{"feature_type":"station_anchor","name_zh":"学知园站","status":"background_verified_point","time_rights_role":"Zhongzhiyuan mobility anchor","formal_claim":false},"geometry":{"type":"Point","coordinates":[116.3458,40.0139]}},
    {"type":"Feature","id":"ANCHOR-QINGHE-XIAOYINGQIAO","properties":{"feature_type":"station_anchor","name_zh":"清河小营桥站","status":"background_verified_point","time_rights_role":"northern reference anchor","formal_claim":false},"geometry":{"type":"Point","coordinates":[116.3368,40.0339]}},
    {"type":"Feature","id":"ANCHOR-QINGHUAYUAN-HERITAGE","properties":{"feature_type":"heritage_anchor","name_zh":"清华园车站旧址","status":"background_verified_heritage_anchor","time_rights_role":"heritage narrative anchor","formal_claim":false},"geometry":{"type":"Point","coordinates":[116.3256,39.9902]}},

    {"type":"Feature","id":"EDGE-DZ-ZC","properties":{"feature_type":"research_skeleton_edge","from":"大钟寺站","to":"知春路站","straight_line_m":1126.2,"distance_method":"haversine_between_background_anchor_points","network_distance_claim":false},"geometry":{"type":"LineString","coordinates":[[116.3383,39.9650],[116.3345,39.9747]]}},
    {"type":"Feature","id":"EDGE-ZC-WDK","properties":{"feature_type":"research_skeleton_edge","from":"知春路站","to":"五道口站","straight_line_m":2040.9,"distance_method":"haversine_between_background_anchor_points","network_distance_claim":false},"geometry":{"type":"LineString","coordinates":[[116.3345,39.9747],[116.3376,39.9929]]}},
    {"type":"Feature","id":"EDGE-WDK-QH","properties":{"feature_type":"research_skeleton_edge","from":"五道口站","to":"清华东路西口站","straight_line_m":778.1,"distance_method":"haversine_between_background_anchor_points","network_distance_claim":false},"geometry":{"type":"LineString","coordinates":[[116.3376,39.9929],[116.3329,39.9989]]}},
    {"type":"Feature","id":"EDGE-QH-XZY","properties":{"feature_type":"research_skeleton_edge","from":"清华东路西口站","to":"学知园站","straight_line_m":1997.3,"distance_method":"haversine_between_background_anchor_points","network_distance_claim":false},"geometry":{"type":"LineString","coordinates":[[116.3329,39.9989],[116.3458,40.0139]]}},
    {"type":"Feature","id":"EDGE-XZY-QHXY","properties":{"feature_type":"research_skeleton_edge","from":"学知园站","to":"清河小营桥站","straight_line_m":2352.2,"distance_method":"haversine_between_background_anchor_points","network_distance_claim":false},"geometry":{"type":"LineString","coordinates":[[116.3458,40.0139],[116.3368,40.0339]]}}
  ]
}
